[{"OBJECT_NAME":"EOSSAT-1","OBJECT_ID":"2023-001AW","EPOCH":"2026-03-09T17:40:07.010400","MEAN_MOTION":15.32339828,"ECCENTRICITY":0.00112629,"INCLINATION":97.3357,"RA_OF_ASC_NODE":130.2294,"ARG_OF_PERICENTER":110.3168,"MEAN_ANOMALY":249.9285,"EPHEMERIS_TYPE":0,"CLASSIFICATION_TYPE":"U","NORAD_CAT_ID":55053,"ELEMENT_SET_NO":999,"REV_AT_EPOCH":17668,"BSTAR":0.00024844399,"MEAN_MOTION_DOT":7.695e-5,"MEAN_MOTION_DDOT":0},{"OBJECT_NAME":"STARLINK-32292","OBJECT_ID":"2024-204R","EPOCH":"2026-03-09T12:54:54.352512","MEAN_MOTION":15.30187281,"ECCENTRICITY":0.00010456,"INCLINATION":53.1601,"RA_OF_ASC_NODE":127.8321,"ARG_OF_PERICENTER":122.8246,"MEAN_ANOMALY":237.2855,"EPHEMERIS_TYPE":0,"CLASSIFICATION_TYPE":"U","NORAD_CAT_ID":61889,"ELEMENT_SET_NO":999,"REV_AT_EPOCH":7507,"BSTAR":-1.7371457e-5,"MEAN_MOTION_DOT":-8.73e-6,"MEAN_MOTION_DDOT":0}]
